start=new Date('2022-01-05T00:00:00.000Z').valueOf();
sats=[{"OBJECT_NAME":"STARLINK-2440","INCLINATION":"53.0566","ECCENTRICITY":"0.00013360","DECAY_DATE":null,"LAUNCH_DATE":"2021-04-07","COUNTRY_CODE":"US","TLE_LINE1":"1 48105U 21027P   22004.75675756 -.00000093  00000-0  12647-4 0  9993","MEAN_ELEMENT_THEORY":"SGP4","BSTAR":"0.00001264700000","EPOCH":"2022-01-04T18:09:43.853184","OBJECT_ID":"2021-027P","TIME_SYSTEM":"UTC","MEAN_MOTION":"15.06399214","GP_ID":"193214584","CLASSIFICATION_TYPE":"U","NORAD_CAT_ID":"48105","EPHEMERIS_TYPE":"0","FILE":"3264067","SITE":"AFETR","APOAPSIS":"548.141","MEAN_MOTION_DOT":"-0.00000093","ELEMENT_SET_NO":"999","OBJECT_TYPE":"PAYLOAD","REF_FRAME":"TEME","MEAN_MOTION_DDOT":"0.0000000000000","RCS_SIZE":"LARGE","RA_OF_ASC_NODE":"107.2957","PERIOD":"95.592","ARG_OF_PERICENTER":"90.6555","REV_AT_EPOCH":"4355","PERIAPSIS":"546.291","TLE_LINE2":"2 48105  53.0566 107.2957 0001336  90.6555 269.4587 15.06399214 43557","MEAN_ANOMALY":"269.4587","SEMIMAJOR_AXIS":"6925.351","CENTER_NAME":"EARTH"},{"MEAN_MOTION":"15.06402493","GP_ID":"193214834","CLASSIFICATION_TYPE":"U","EPHEMERIS_TYPE":"0","NORAD_CAT_ID":"48106","FILE":"3264067","TIME_SYSTEM":"UTC","EPOCH":"2022-01-04T17:45:49.583808","OBJECT_ID":"2021-027Q","TLE_LINE1":"1 48106U 21027Q   22004.74015722 -.00000764  00000-0 -32363-4 0  9997","MEAN_ELEMENT_THEORY":"SGP4","BSTAR":"-0.00003236300000","INCLINATION":"53.0545","OBJECT_NAME":"STARLINK-2442","ECCENTRICITY":"0.00024150","DECAY_DATE":null,"COUNTRY_CODE":"US","LAUNCH_DATE":"2021-04-07","MEAN_ANOMALY":"263.7681","TLE_LINE2":"2 48106  53.0545 157.3747 0002415  96.3583 263.7681 15.06402493 42859","SEMIMAJOR_AXIS":"6925.341","CENTER_NAME":"EARTH","RA_OF_ASC_NODE":"157.3747","PERIOD":"95.592","RCS_SIZE":"LARGE","REV_AT_EPOCH":"4285","ARG_OF_PERICENTER":"96.3583","PERIAPSIS":"545.533","OBJECT_TYPE":"PAYLOAD","MEAN_MOTION_DDOT":"0.0000000000000","REF_FRAME":"TEME","SITE":"AFETR","MEAN_MOTION_DOT":"-0.00000764","APOAPSIS":"548.878","ELEMENT_SET_NO":"999"},{"MEAN_ELEMENT_THEORY":"SGP4","TLE_LINE1":"1 48107U 21027R   22004.82218510  .00001458  00000-0  11674-3 0  9997","BSTAR":"0.00011674000000","ECCENTRICITY":"0.00020140","OBJECT_NAME":"STARLINK-2443","INCLINATION":"53.0546","COUNTRY_CODE":"US","LAUNCH_DATE":"2021-04-07","DECAY_DATE":null,"NORAD_CAT_ID":"48107","EPHEMERIS_TYPE":"0","CLASSIFICATION_TYPE":"U","GP_ID":"193215586","MEAN_MOTION":"15.06404290","FILE":"3264067","EPOCH":"2022-01-04T19:43:56.792640","OBJECT_ID":"2021-027R","TIME_SYSTEM":"UTC","OBJECT_TYPE":"PAYLOAD","REF_FRAME":"TEME","MEAN_MOTION_DDOT":"0.0000000000000","SITE":"AFETR","ELEMENT_SET_NO":"999","APOAPSIS":"548.595","MEAN_MOTION_DOT":"0.00001458","TLE_LINE2":"2 48107  53.0546 157.0052 0002014  98.8785 261.2432 15.06404290 42868","MEAN_ANOMALY":"261.2432","CENTER_NAME":"EARTH","SEMIMAJOR_AXIS":"6925.335","RCS_SIZE":"MEDIUM","PERIOD":"95.592","RA_OF_ASC_NODE":"157.0052","PERIAPSIS":"545.806","ARG_OF_PERICENTER":"98.8785","REV_AT_EPOCH":"4286"},{"SITE":"AFETR","ELEMENT_SET_NO":"999","MEAN_MOTION_DOT":"0.00000784","APOAPSIS":"548.783","OBJECT_TYPE":"PAYLOAD","MEAN_MOTION_DDOT":"0.0000000000000","REF_FRAME":"TEME","RA_OF_ASC_NODE":"167.4380","PERIOD":"95.592","RCS_SIZE":"LARGE","PERIAPSIS":"545.679","REV_AT_EPOCH":"4270","ARG_OF_PERICENTER":"88.3388","MEAN_ANOMALY":"271.7858","TLE_LINE2":"2 48108  53.0539 167.4380 0002241  88.3388 271.7858 15.06394430 42700","CENTER_NAME":"EARTH","SEMIMAJOR_AXIS":"6925.366","ECCENTRICITY":"0.00022410","OBJECT_NAME":"STARLINK-2444","INCLINATION":"53.0539","COUNTRY_CODE":"US","LAUNCH_DATE":"2021-04-07","DECAY_DATE":null,"MEAN_ELEMENT_THEORY":"SGP4","TLE_LINE1":"1 48108U 21027S   22004.72912904  .00000784  00000-0  71528-4 0  9991","BSTAR":"0.00007152800000","TIME_SYSTEM":"UTC","EPOCH":"2022-01-04T17:29:56.749056","OBJECT_ID":"2021-027S","EPHEMERIS_TYPE":"0","NORAD_CAT_ID":"48108","GP_ID":"193216336","CLASSIFICATION_TYPE":"U","MEAN_MOTION":"15.06394430","FILE":"3264067"},{"SITE":"AFETR","MEAN_MOTION_DOT":"0.00000491","APOAPSIS":"548.720","ELEMENT_SET_NO":"999","OBJECT_TYPE":"PAYLOAD","MEAN_MOTION_DDOT":"0.0000000000000","REF_FRAME":"TEME","RA_OF_ASC_NODE":"177.3643","PERIOD":"95.592","RCS_SIZE":"LARGE","REV_AT_EPOCH":"4257","ARG_OF_PERICENTER":"87.8666","PERIAPSIS":"545.692","MEAN_ANOMALY":"272.2574","TLE_LINE2":"2 48109  53.0548 177.3643 0002186  87.8666 272.2574 15.06402433 42573","SEMIMAJOR_AXIS":"6925.341","CENTER_NAME":"EARTH","OBJECT_NAME":"STARLINK-2445","INCLINATION":"53.0548","ECCENTRICITY":"0.00021860","DECAY_DATE":null,"LAUNCH_DATE":"2021-04-07","COUNTRY_CODE":"US","TLE_LINE1":"1 48109U 21027T   22004.74293714  .00000491  00000-0  51852-4 0  9998","MEAN_ELEMENT_THEORY":"SGP4","BSTAR":"0.00005185200000","TIME_SYSTEM":"UTC","EPOCH":"2022-01-04T17:49:49.768896","OBJECT_ID":"2021-027T","CLASSIFICATION_TYPE":"U","GP_ID":"193215084","MEAN_MOTION":"15.06402433","NORAD_CAT_ID":"48109","EPHEMERIS_TYPE":"0","FILE":"3264067"},{"SITE":"AFETR","ELEMENT_SET_NO":"999","MEAN_MOTION_DOT":"0.00000835","APOAPSIS":"548.944","OBJECT_TYPE":"PAYLOAD","MEAN_MOTION_DDOT":"0.0000000000000","REF_FRAME":"TEME","PERIOD":"95.593","RA_OF_ASC_NODE":"167.4774","RCS_SIZE":"LARGE","PERIAPSIS":"545.524","REV_AT_EPOCH":"4271","ARG_OF_PERICENTER":"92.1456","MEAN_ANOMALY":"267.9816","TLE_LINE2":"2 48110  53.0548 167.4774 0002469  92.1456 267.9816 15.06393265 42718","CENTER_NAME":"EARTH","SEMIMAJOR_AXIS":"6925.369","ECCENTRICITY":"0.00024690","OBJECT_NAME":"STARLINK-2447","INCLINATION":"53.0548","COUNTRY_CODE":"US","LAUNCH_DATE":"2021-04-07","DECAY_DATE":null,"MEAN_ELEMENT_THEORY":"SGP4","TLE_LINE1":"1 48110U 21027U   22004.71806853  .00000835  00000-0  74958-4 0  9995","BSTAR":"0.00007495800000","TIME_SYSTEM":"UTC","EPOCH":"2022-01-04T17:14:01.120992","OBJECT_ID":"2021-027U","NORAD_CAT_ID":"48110","EPHEMERIS_TYPE":"0","CLASSIFICATION_TYPE":"U","GP_ID":"193215334","MEAN_MOTION":"15.06393265","FILE":"3264067"},{"PERIAPSIS":"545.672","ARG_OF_PERICENTER":"94.9960","REV_AT_EPOCH":"4273","RCS_SIZE":"LARGE","RA_OF_ASC_NODE":"166.9109","PERIOD":"95.592","CENTER_NAME":"EARTH","SEMIMAJOR_AXIS":"6925.335","TLE_LINE2":"2 48111  53.0541 166.9109 0002206  94.9960 265.1281 15.06404508 42738","MEAN_ANOMALY":"265.1281","ELEMENT_SET_NO":"999","APOAPSIS":"548.727","MEAN_MOTION_DOT":"0.00000756","SITE":"AFETR","REF_FRAME":"TEME","MEAN_MOTION_DDOT":"0.0000000000000","OBJECT_TYPE":"PAYLOAD","EPOCH":"2022-01-04T20:18:24.614208","OBJECT_ID":"2021-027V","TIME_SYSTEM":"UTC","FILE":"3264067","NORAD_CAT_ID":"48111","EPHEMERIS_TYPE":"0","GP_ID":"193216086","MEAN_MOTION":"15.06404508","CLASSIFICATION_TYPE":"U","COUNTRY_CODE":"US","LAUNCH_DATE":"2021-04-07","DECAY_DATE":null,"ECCENTRICITY":"0.00022060","OBJECT_NAME":"STARLINK-2448","INCLINATION":"53.0541","BSTAR":"0.00006968700000","MEAN_ELEMENT_THEORY":"SGP4","TLE_LINE1":"1 48111U 21027V   22004.84611822  .00000756  00000-0  69687-4 0  9995"},{"FILE":"3264067","EPHEMERIS_TYPE":"0","NORAD_CAT_ID":"48112","GP_ID":"193215837","CLASSIFICATION_TYPE":"U","MEAN_MOTION":"15.06392063","TIME_SYSTEM":"UTC","OBJECT_ID":"2021-027W","EPOCH":"2022-01-04T18:06:25.407936","BSTAR":"0.00004367900000","MEAN_ELEMENT_THEORY":"SGP4","TLE_LINE1":"1 48112U 21027W   22004.75446074  .00000369  00000-0  43679-4 0  9994","COUNTRY_CODE":"US","LAUNCH_DATE":"2021-04-07","DECAY_DATE":null,"ECCENTRICITY":"0.00023900","OBJECT_NAME":"STARLINK-2449","INCLINATION":"53.0531","CENTER_NAME":"EARTH","SEMIMAJOR_AXIS":"6925.373","MEAN_ANOMALY":"272.2282","TLE_LINE2":"2 48112  53.0531 182.3235 0002390  87.8980 272.2282 15.06392063 42504","PERIAPSIS":"545.583","REV_AT_EPOCH":"4250","ARG_OF_PERICENTER":"87.8980","RA_OF_ASC_NODE":"182.3235","PERIOD":"95.593","RCS_SIZE":"LARGE","MEAN_MOTION_DDOT":"0.0000000000000","REF_FRAME":"TEME","OBJECT_TYPE":"PAYLOAD","ELEMENT_SET_NO":"999","MEAN_MOTION_DOT":"0.00000369","APOAPSIS":"548.893","SITE":"AFETR"},{"MEAN_ANOMALY":"275.2627","TLE_LINE2":"2 48113  53.0550 177.5393 0002576  84.8656 275.2627 15.06402540 42553","SEMIMAJOR_AXIS":"6925.341","CENTER_NAME":"EARTH","PERIOD":"95.592","RA_OF_ASC_NODE":"177.5393","RCS_SIZE":"LARGE","REV_AT_EPOCH":"4255","ARG_OF_PERICENTER":"84.8656","PERIAPSIS":"545.422","OBJECT_TYPE":"PAYLOAD","MEAN_MOTION_DDOT":"0.0000000000000","REF_FRAME":"TEME","SITE":"AFETR","MEAN_MOTION_DOT":"0.00000444","APOAPSIS":"548.990","ELEMENT_SET_NO":"999","MEAN_MOTION":"15.06402540","GP_ID":"193214585","CLASSIFICATION_TYPE":"U","NORAD_CAT_ID":"48113","EPHEMERIS_TYPE":"0","FILE":"3264067","TIME_SYSTEM":"UTC","OBJECT_ID":"2021-027X","EPOCH":"2022-01-04T16:56:45.639456","TLE_LINE1":"1 48113U 21027X   22004.70608379  .00000444  00000-0  48707-4 0  9999","MEAN_ELEMENT_THEORY":"SGP4","BSTAR":"0.00004870700000","OBJECT_NAME":"STARLINK-2450","INCLINATION":"53.0550","ECCENTRICITY":"0.00025760","DECAY_DATE":null,"COUNTRY_CODE":"US","LAUNCH_DATE":"2021-04-07"},{"RCS_SIZE":"LARGE","RA_OF_ASC_NODE":"172.4254","PERIOD":"95.593","ARG_OF_PERICENTER":"85.0729","REV_AT_EPOCH":"4264","PERIAPSIS":"545.555","TLE_LINE2":"2 48114  53.0556 172.4254 0002427  85.0729 275.0537 15.06392643 42649","MEAN_ANOMALY":"275.0537","SEMIMAJOR_AXIS":"6925.371","CENTER_NAME":"EARTH","SITE":"AFETR","APOAPSIS":"548.917","MEAN_MOTION_DOT":"0.00000852","ELEMENT_SET_NO":"999","OBJECT_TYPE":"PAYLOAD","REF_FRAME":"TEME","MEAN_MOTION_DDOT":"0.0000000000000","EPOCH":"2022-01-04T17:35:52.816416","OBJECT_ID":"2021-027Y","TIME_SYSTEM":"UTC","GP_ID":"193214835","MEAN_MOTION":"15.06392643","CLASSIFICATION_TYPE":"U","EPHEMERIS_TYPE":"0","NORAD_CAT_ID":"48114","FILE":"3264067","OBJECT_NAME":"STARLINK-2451","INCLINATION":"53.0556","ECCENTRICITY":"0.00024270","DECAY_DATE":null,"COUNTRY_CODE":"US","LAUNCH_DATE":"2021-04-07","TLE_LINE1":"1 48114U 21027Y   22004.73325019  .00000852  00000-0  76148-4 0  9993","MEAN_ELEMENT_THEORY":"SGP4","BSTAR":"0.00007614800000"}];
